{
    "links": {
        "self": "http://www.neowsapp.com/rest/v1/neo/54075577?api_key=iIulBulltgU6a56xZRHN4H3l9WmuAYTsLGpBGhQ2"
    },
    "id": "54075577",
    "neo_reference_id": "54075577",
    "name": "(2020 TR8)",
    "designation": "2020 TR8",
    "nasa_jpl_url": "http://ssd.jpl.nasa.gov/sbdb.cgi?sstr=54075577",
    "absolute_magnitude_h": 26.015,
    "estimated_diameter": {
        "kilometers": {
            "estimated_diameter_min": 0.0166553965,
            "estimated_diameter_max": 0.0372425988
        },
        "meters": {
            "estimated_diameter_min": 16.655396523,
            "estimated_diameter_max": 37.2425988176
        },
        "miles": {
            "estimated_diameter_min": 0.0103491804,
            "estimated_diameter_max": 0.0231414709
        },
        "feet": {
            "estimated_diameter_min": 54.6436911285,
            "estimated_diameter_max": 122.1870079048
        }
    },
    "is_potentially_hazardous_asteroid": false,
    "close_approach_data": [
        {
            "close_approach_date": "2020-10-10",
            "close_approach_date_full": "2020-Oct-10 05:41",
            "epoch_date_close_approach": 1602308460000,
            "relative_velocity": {
                "kilometers_per_second": "26.5373480454",
                "kilometers_per_hour": "95534.4529635509",
                "miles_per_hour": "59361.3938428242"
            },
            "miss_distance": {
                "astronomical": "0.0171633638",
                "lunar": "6.6765485182",
                "kilometers": "2567602.666515106",
                "miles": "1595434.3157002228"
            },
            "orbiting_body": "Earth"
        },
        {
            "close_approach_date": "2020-11-10",
            "close_approach_date_full": "2020-Nov-10 19:37",
            "epoch_date_close_approach": 1605037020000,
            "relative_velocity": {
                "kilometers_per_second": "21.9072623153",
                "kilometers_per_hour": "78866.144335057",
                "miles_per_hour": "49004.3550730803"
            },
            "miss_distance": {
                "astronomical": "0.0283221575",
                "lunar": "11.0173192675",
                "kilometers": "4236934.435804525",
                "miles": "2632708.978071445"
            },
            "orbiting_body": "Mars"
        }
    ],
    "orbital_data": {
        "orbit_id": "1",
        "orbit_determination_date": "2020-10-20 10:12:08",
        "first_observation_date": "2020-10-14",
        "last_observation_date": "2020-10-20",
        "data_arc_in_days": 6,
        "observations_used": 9,
        "orbit_uncertainty": "8",
        "minimum_orbit_intersection": ".00135812",
        "jupiter_tisserand_invariant": "2.845",
        "epoch_osculation": "2459139.5",
        "eccentricity": ".8120450477554779",
        "semi_major_axis": "2.569480752715521",
        "inclination": "1.730388248016326",
        "ascending_node_longitude": "176.3562386593941",
        "orbital_period": "1504.410930360152",
        "perihelion_distance": ".4829466321698644",
        "perihelion_argument": "101.2979065771858",
        "aphelion_distance": "4.656014873261178",
        "perihelion_time": "2459088.799860740323",
        "mean_anomaly": "12.13235676844905",
        "mean_motion": ".2392963203968592",
        "equinox": "J2000",
        "orbit_class": {
            "orbit_class_type": "APO",
            "orbit_class_description": "Near-Earth asteroid orbits which cross the Earth’s orbit similar to that of 1862 Apollo",
            "orbit_class_range": "a (semi-major axis) > 1.0 AU; q (perihelion) < 1.017 AU"
        }
    },
    "is_sentry_object": false
}